{
  "type": "FeatureCollection",
  "features": [
    {
      "type": "Feature",
      "properties": {
        "name": "Global coverage"
      },
      "geometry": {
        "type": "MultiPolygon",
        "coordinates": [
          [
            [
              [
                -180.0,
                -85.0
              ],
              [
                180.0,
                -85.0
              ],
              [
                180.0,
                85.0
              ],
              [
                -180.0,
                85.0
              ],
              [
                -180.0,
                -85.0
              ]
            ]
          ]
        ]
      }
    }
  ]
}
